[{"OBJECT_NAME":"CENTISPACE-1 S3","OBJECT_ID":"2022-108A","EPOCH":"2026-03-09T21:17:43.722240","MEAN_MOTION":14.6113097,"ECCENTRICITY":0.00108359,"INCLINATION":53.532,"RA_OF_ASC_NODE":105.8367,"ARG_OF_PERICENTER":82.3446,"MEAN_ANOMALY":277.876,"EPHEMERIS_TYPE":0,"CLASSIFICATION_TYPE":"U","NORAD_CAT_ID":53757,"ELEMENT_SET_NO":999,"REV_AT_EPOCH":18701,"BSTAR":0.00015693315,"MEAN_MOTION_DOT":5.89e-6,"MEAN_MOTION_DDOT":0},{"OBJECT_NAME":"SL-8 DEB","OBJECT_ID":"1989-005C","EPOCH":"2026-03-09T21:21:21.031200","MEAN_MOTION":14.63182819,"ECCENTRICITY":0.00094548,"INCLINATION":74.0675,"RA_OF_ASC_NODE":3.1018,"ARG_OF_PERICENTER":42.6643,"MEAN_ANOMALY":24.5528,"EPHEMERIS_TYPE":0,"CLASSIFICATION_TYPE":"U","NORAD_CAT_ID":19831,"ELEMENT_SET_NO":999,"REV_AT_EPOCH":95806,"BSTAR":0.00063752146,"MEAN_MOTION_DOT":3.255e-5,"MEAN_MOTION_DDOT":0}]
